<html><!--
 Page saved with SingleFile 
 url: https://ssd.jpl.nasa.gov/horizons_batch.cgi?batch=1&OUT_UNITS=%27AU-D%27&COMMAND=%27899%27&MAKE_EPHEM=%27YES%27&CENTER=%27@sun%27%20%20&TABLE_TYPE=%27VECTOR%27&START_TIME=%272020-04-03%2011:00%27&STOP_TIME=%272020-04-03%2012:00%27&STEP_SIZE=%2715%20h%27%20%20&QUANTITIES=%271%27&CSV_FORMAT=%27NO%27 
 saved date: Fri Apr 03 2020 11:06:57 GMT-0400 (Eastern Daylight Time)
--><meta charset=utf-8><link type=image/x-icon rel="shortcut icon" href="data:image/x-icon;base64,AAABAAEAEBAAAAEACABoBQAAFgAAACgAAAAQAAAAIAAAAAEACAAAAAAAAAAAAAAAAAAAAAAAAAAAAAAAAAAAAAAAR7GxACu+vgB1dXUAb29vAGtrawBjY2MAXV1dAFdXVwA5OTkANTU1AOTk5AAvLy8AJycnACvU1AAbGxsAGRkZAA8PDwAJCQkAAQEBAAnv7wCWlpYAlJSUAIyMjAB8fHwAZmZmAGRkZABiYmIAYGBgAFBQUAD///8ASEhIADg4OAAwMDAA39/fAGqNjQAgICAAHBwcABQUFAAuw8MAAgICAAAAAAAAAAAAAAAAAAAAAAAAAAAAAAAAAAAAAAAAAAAAAAAAAAAAAAAAAAAAAAAAAAAAAAAAAAAAAAAAAAAAAAAAAAAAAAAAAAAAAAAAAAAAAAAAAAAAAAAAAAAAAAAAAAAAAAAAAAAAAAAAAAAAAAAAAAAAAAAAAAAAAAAAAAAAAAAAAAAAAAAAAAAAAAAAAAAAAAAAAAAAAAAAAAAAAAAAAAAAAAAAAAAAAAAAAAAAAAAAAAAAAAAAAAAAAAAAAAAAAAAAAAAAAAAAAAAAAAAAAAAAAAAAAAAAAAAAAAAAAAAAAAAAAAAAAAAAAAAAAAAAAAAAAAAAAAAAAAAAAAAAAAAAAAAAAAAAAAAAAAAAAAAAAAAAAAAAAAAAAAAAAAAAAAAAAAAAAAAAAAAAAAAAAAAAAAAAAAAAAAAAAAAAAAAAAAAAAAAAAAAAAAAAAAAAAAAAAAAAAAAAAAAAAAAAAAAAAAAAAAAAAAAAAAAAAAAAAAAAAAAAAAAAAAAAAAAAAAAAAAAAAAAAAAAAAAAAAAAAAAAAAAAAAAAAAAAAAAAAAAAAAAAAAAAAAAAAAAAAAAAAAAAAAAAAAAAAAAAAAAAAAAAAAAAAAAAAAAAAAAAAAAAAAAAAAAAAAAAAAAAAAAAAAAAAAAAAAAAAAAAAAAAAAAAAAAAAAAAAAAAAAAAAAAAAAAAAAAAAAAAAAAAAAAAAAAAAAAAAAAAAAAAAAAAAAAAAAAAAAAAAAAAAAAAAAAAAAAAAAAAAAAAAAAAAAAAAAAAAAAAAAAAAAAAAAAAAAAAAAAAAAAAAAAAAAAAAAAAAAAAAAAAAAAAAAAAAAAAAAAAAAAAAAAAAAAAAAAAAAAAAAAAAAAAAAAAAAAAAAAAAAAAAAAAAAAAAAAAAAAAAAAAAAAAAAAAAAAAAAAAAAAAAAAAAAAAAAAAAAAAAAAAAAAAAAAAAAAAAAAAAAAAAAAAAAAAAAAAAAAAAAAAAAAAAAAAAAAAAAAAAAAAAAAAAAAAAAAAAAAAAAAAAAAAAAAAAAAAAAAAAAAAAAAAAAAAAAAAAAAAAAAAAAAAAAAAAAAAAAAAAAAAAAAAAAAAAAAAAAAAAAAAAAAAAAAAAAAAAAAAAAAAAAAAAAAAAAAAAAAAAAAAAAAAAAAAAAAAWAAAAAAAAAAAAAAAAAAAAAAAAAAAAAAAAAAAAAAAAAAAAAAAAHgAAAAAAAAAAAAAAAAAAAAAAAAAeAAAkEwAAAAAAAAAVAwAAAAAAGyEPEigLAAAAHBgAAAAAExElFwgJCgAAAAAAAAAAABIdBAEaHygAAAAAAAAAAAAQBgIUDhkAAAAAAAAAAAAADBsjJwUmAAAAAAAAAAAAABMmHQcNAAAAAAAeAAAAAAAAABIPAAAAAB4AAAAAAAAAIgAAAAAAAAAAAAAAAAAAAAAAAAAAAAAAAAAAAAAAAAAAAAAAACIgAAAAHgAAAAAAAAAAAAAAAAAAAAAAAAAAAAAAAAAAAAAAAAAAAAAAAAAAAAAAAAAAAAAAAAAAAAAAAAAAAAAAAAAAAAAAAAAAAAAAAAAAAAAAAAAAAAA="><link rel=canonical href="https://ssd.jpl.nasa.gov/horizons_batch.cgi?batch=1&amp;OUT_UNITS=%27AU-D%27&amp;COMMAND=%27899%27&amp;MAKE_EPHEM=%27YES%27&amp;CENTER=%27@sun%27%20%20&amp;TABLE_TYPE=%27VECTOR%27&amp;START_TIME=%272020-04-03%2011:00%27&amp;STOP_TIME=%272020-04-03%2012:00%27&amp;STEP_SIZE=%2715%20h%27%20%20&amp;QUANTITIES=%271%27&amp;CSV_FORMAT=%27NO%27"><body><pre style=word-wrap:break-word;white-space:pre-wrap>*******************************************************************************
 Revised: December 14, 2018           Neptune                               899
 
 PHYSICAL DATA (update 2018-Aug-15):
  Mass x10^24 (kg)      = 102.413         Density (g/cm^3)       =  1.638
  Equat. radius (1 bar) = 24766+-15 km    Volume, 10^10 km^3     = 6254     
  Vol. mean radius (km) = 24624+-21       Polar radius (km)      = 24342+-30
  Geometric Albedo      = 0.41            Flattening             =  0.0171
  Sid. rot. period (III)= 16.11+-0.01 hr  Sid. rot. rate (rad/s) =  0.000108338 
  Mean solar day, h     =~16.11 h         
  GM (km^3/s^2)         = 6835099.5       GM 1-sigma (km^3/s^2)  = +-10 
  Equ. grav, ge (m/s^2) = 11.15           Pol. grav, gp (m/s^2)  = 11.41+-0.03
  Visual magnitude V(1,0)= -6.87
  Vis. mag. (opposition)=  +7.84          Obliquity to orbit     = 28.32 deg
  Sidereal orbit period = 164.788501027 y Sidereal orbit period  = 60189 d
  Mean daily motion     = 0.006020076dg/d Mean orbit velocity    =  5.43 km/s 
  Atmos. temp. (1 bar)  =  72+-2 K        Escape speed (1 bar)  =  23.5 km/s     
  Aroche(ice)/Rp        =  2.98           Hill's sphere rad., Rp = 4700
                                 Perihelion  Aphelion    Mean
  Solar Constant (W/m^2)         1.54        1.49        1.51
  Maximum Planetary IR (W/m^2)   0.52        0.52        0.52
  Minimum Planetary IR (W/m^2)   0.52        0.52        0.52
*******************************************************************************
 
 
*******************************************************************************
Ephemeris / WWW_USER Fri Apr  3 08:06:57 2020 Pasadena, USA      / Horizons    
*******************************************************************************
Target body name: Neptune (899)                   {source: nep090_merged_DE435}
Center body name: Sun (10)                        {source: nep090_merged_DE435}
Center-site name: BODY CENTER
*******************************************************************************
Start time      : A.D. 2020-Apr-03 11:00:00.0000 TDB
Stop  time      : A.D. 2020-Apr-03 12:00:00.0000 TDB
Step-size       : 900 minutes
*******************************************************************************
Center geodetic : 0.00000000,0.00000000,0.0000000 {E-lon(deg),Lat(deg),Alt(km)}
Center cylindric: 0.00000000,0.00000000,0.0000000 {E-lon(deg),Dxy(km),Dz(km)}
Center radii    : 696000.0 x 696000.0 x 696000.0 k{Equator, meridian, pole}    
Output units    : AU-D                                                         
Output type     : GEOMETRIC cartesian states
Output format   : 3 (position, velocity, LT, range, range-rate)
Reference frame : ICRF/J2000.0                                                 
Coordinate systm: Ecliptic and Mean Equinox of Reference Epoch                 
*******************************************************************************
JDTDB
   X     Y     Z
   VX    VY    VZ
   LT    RG    RR
*******************************************************************************
$$SOE
2458942.958333333 = A.D. 2020-Apr-03 11:00:00.0000 TDB 
 X = 2.930257923943589E+01 Y =-6.078241700641552E+00 Z =-5.502251095775702E-01
 VX= 6.244129124573380E-04 VY= 3.095027891498137E-03 VZ=-7.850320368251448E-05
 LT= 1.728693700288568E-01 RG= 2.993140357427374E+01 RR=-1.577688511413671E-05
$$EOE
*******************************************************************************
Coordinate system description:

  Ecliptic and Mean Equinox of Reference Epoch

    Reference epoch: J2000.0
    XY-plane: plane of the Earth's orbit at the reference epoch
              Note: obliquity of 84381.448 arcseconds wrt ICRF equator (IAU76)
    X-axis  : out along ascending node of instantaneous plane of the Earth's
              orbit and the Earth's mean equator at the reference epoch
    Z-axis  : perpendicular to the xy-plane in the directional (+ or -) sense
              of Earth's north pole at the reference epoch.

  Symbol meaning [1 au= 149597870.700 km, 1 day= 86400.0 s]:

    JDTDB    Julian Day Number, Barycentric Dynamical Time
      X      X-component of position vector (au)                               
      Y      Y-component of position vector (au)                               
      Z      Z-component of position vector (au)                               
      VX     X-component of velocity vector (au/day)                           
      VY     Y-component of velocity vector (au/day)                           
      VZ     Z-component of velocity vector (au/day)                           
      LT     One-way down-leg Newtonian light-time (day)                       
      RG     Range; distance from coordinate center (au)                       
      RR     Range-rate; radial velocity wrt coord. center (au/day)            

Geometric states/elements have no aberrations applied.

 Computations by ...
     Solar System Dynamics Group, Horizons On-Line Ephemeris System
     4800 Oak Grove Drive, Jet Propulsion Laboratory
     Pasadena, CA  91109   USA
     Information: http://ssd.jpl.nasa.gov/
     Connect    : telnet://ssd.jpl.nasa.gov:6775  (via browser)
                  http://ssd.jpl.nasa.gov/?horizons
                  telnet ssd.jpl.nasa.gov 6775    (via command-line)
     Author     : Jon.D.Giorgini@jpl.nasa.gov
*******************************************************************************

!$$SOF
OUT_UNITS = 'AU-D'
COMMAND = '899'
MAKE_EPHEM = 'YES'
CENTER = '@sun'  
TABLE_TYPE = 'VECTOR'
START_TIME = '2020-04-03 11:00'
STOP_TIME = '2020-04-03 12:00'
STEP_SIZE = '15 h'  
QUANTITIES = '1'
CSV_FORMAT = 'NO'
</pre>